[{"OBJECT_NAME":"STARLINK-3804","OBJECT_ID":"2022-041K","EPOCH":"2026-03-09T19:38:51.368640","MEAN_MOTION":15.08842954,"ECCENTRICITY":0.00014333,"INCLINATION":53.2186,"RA_OF_ASC_NODE":108.5683,"ARG_OF_PERICENTER":85.6934,"MEAN_ANOMALY":274.4222,"EPHEMERIS_TYPE":0,"CLASSIFICATION_TYPE":"U","NORAD_CAT_ID":52270,"ELEMENT_SET_NO":999,"REV_AT_EPOCH":21438,"BSTAR":-8.0667226e-5,"MEAN_MOTION_DOT":-1.572e-5,"MEAN_MOTION_DDOT":0},{"OBJECT_NAME":"SL-8 R\/B","OBJECT_ID":"1968-040B","EPOCH":"2026-03-09T18:37:46.369632","MEAN_MOTION":15.03260494,"ECCENTRICITY":0.00239141,"INCLINATION":74.0322,"RA_OF_ASC_NODE":313.5182,"ARG_OF_PERICENTER":137.361,"MEAN_ANOMALY":222.9441,"EPHEMERIS_TYPE":0,"CLASSIFICATION_TYPE":"U","NORAD_CAT_ID":3230,"ELEMENT_SET_NO":999,"REV_AT_EPOCH":9002,"BSTAR":0.00025747843,"MEAN_MOTION_DOT":3.469e-5,"MEAN_MOTION_DDOT":0}]
